ONEWEB-0136             
1 47282U 20100AA  25273.83272454 -.00000178  00000+0 -53153-3 0  9997
2 47282  87.8935  42.1663 0001721 114.5328 245.5980 13.12441768230647
ONEWEB-0137             
1 47283U 20100AB  25273.63807299  .00000083  00000+0  19561-3 0  9995
2 47283  87.8936  42.2109 0001863  96.4047 263.7294 13.12443821230527
ONEWEB-0138             
1 47284U 20100AC  25273.84567655 -.00000397  00000+0 -11390-2 0  9999
2 47284  87.8934  42.1793 0001688 105.7896 254.3418 13.12440521230635
ONEWEB-0139             
1 47285U 20100AD  25273.65607015  .00000650  00000+0  17711-2 0  9997
2 47285  87.8933  42.2075 0001674  98.8305 261.3013 13.12444393230686
ONEWEB-0140             
1 47286U 20100AE  25273.83920113 -.00000425  00000+0 -12159-2 0  9998
2 47286  87.8934  42.1562 0001666 103.0905 257.0410 13.12441972230676
ONEWEB-0141             
1 47287U 20100AF  25273.65577506  .00000276  00000+0  73179-3 0  9995
2 47287  87.8927  42.2062 0001982  92.3846 267.7509 13.12442821230637
ONEWEB-0142             
1 47288U 20100AG  25273.64471007  .00000306  00000+0  81497-3 0  9990
2 47288  87.8939  42.2266 0002067  98.9267 261.2096 13.12444394230627
ONEWEB-0143             
1 47289U 20100AH  25273.65428709  .00000264  00000+0  69894-3 0  9993
2 47289  87.8936  42.2213 0001668  98.8150 261.3167 13.12443401230609
